[{"OBJECT_NAME":"STARLINK-35210","OBJECT_ID":"2025-224X","EPOCH":"2026-03-09T23:30:50.938272","MEAN_MOTION":15.3023436,"ECCENTRICITY":9.022e-5,"INCLINATION":53.1604,"RA_OF_ASC_NODE":10.355,"ARG_OF_PERICENTER":74.192,"MEAN_ANOMALY":285.918,"EPHEMERIS_TYPE":0,"CLASSIFICATION_TYPE":"U","NORAD_CAT_ID":65903,"ELEMENT_SET_NO":999,"REV_AT_EPOCH":2489,"BSTAR":0.0016241912,"MEAN_MOTION_DOT":0.00048108,"MEAN_MOTION_DDOT":0},{"OBJECT_NAME":"GLOBAL-34","OBJECT_ID":"2026-043A","EPOCH":"2026-03-09T11:23:30.999840","MEAN_MOTION":15.31488019,"ECCENTRICITY":0.00068849,"INCLINATION":42.0215,"RA_OF_ASC_NODE":76.7399,"ARG_OF_PERICENTER":289.2632,"MEAN_ANOMALY":70.746,"EPHEMERIS_TYPE":0,"CLASSIFICATION_TYPE":"U","NORAD_CAT_ID":68098,"ELEMENT_SET_NO":999,"REV_AT_EPOCH":53,"BSTAR":0.00045822046,"MEAN_MOTION_DOT":0.00014018,"MEAN_MOTION_DDOT":0}]
